OBJECT_NAME,OBJECT_ID,EPOCH,MEAN_MOTION,ECCENTRICITY,INCLINATION,RA_OF_ASC_NODE,ARG_OF_PERICENTER,MEAN_ANOMALY,EPHEMERIS_TYPE,CLASSIFICATION_TYPE,NORAD_CAT_ID,ELEMENT_SET_NO,REV_AT_EPOCH,BSTAR,MEAN_MOTION_DOT,MEAN_MOTION_DDOT
NESS,2023-155E,2026-07-16T03:55:27.469632,15.31048752,.0007177,97.5914,283.6062,101.8981,258.3065,0,U,58020,999,15292,.29531E-3,.8786E-4,0
CSC-2,2023-155F,2026-07-16T04:37:04.141920,15.22294732,.0006319,97.5420,273.9418,128.8254,231.3547,0,U,58021,999,15259,.20514E-3,.4655E-4,0
CSC-1,2023-155G,2026-07-16T02:57:59.820192,15.10967787,.0009242,97.5356,266.1651,135.1777,225.0201,0,U,58022,999,15210,.12013E-3,.1942E-4,0
PRETTY,2023-155H,2026-07-15T06:51:47.302560,15.24186818,.00002957,97.5690,278.1471,39.3650,320.7608,0,U,58023,999,15263,.1330388E-3,.3166E-4,0
MACSAT (FINCH 1),2023-155J,2026-07-16T04:04:55.358688,15.20795354,.0001703,97.5777,279.3176,10.3709,349.7560,0,U,58024,999,15273,.10146E-3,.2165E-4,0
PVCC,2023-155K,2026-07-16T04:12:25.483680,15.16277380,.0004969,97.5696,273.6420,50.6961,309.4711,0,U,58025,999,15237,.16148E-3,.3058E-4,0
STARLINK-30514,2023-156A,2026-07-15T17:42:23.191488,15.30179274,.00018457,53.1602,203.3950,81.2422,278.8788,0,U,58028,999,15592,-.5066592E-4,-.1859E-4,0
STARLINK-30518,2023-156B,2026-07-16T00:12:16.655040,15.30186772,.0001277,53.1587,202.2502,89.3841,270.7306,0,U,58029,999,15596,.24434E-4,.364E-5,0
STARLINK-30549,2023-156C,2026-07-15T07:35:38.056416,15.30204770,.0001175,53.1597,205.5663,92.0125,268.1010,0,U,58030,999,15580,-.40307772E-4,-.1553E-4,0
STARLINK-30556,2023-156D,2026-07-16T01:13:15.356352,15.34403868,.0001219,53.1588,210.0239,90.2557,269.8585,0,U,58031,999,15584,.30889E-4,.668E-5,0
STARLINK-30561,2023-156E,2026-07-16T04:00:01.998720,15.34406727,.0001397,53.1594,201.5647,72.3935,321.2704,0,U,58032,999,584,-.79875E-3,-.27272E-3,0
STARLINK-30562,2023-156F,2026-07-15T18:01:39.614016,15.30200244,.00010662,53.1599,293.0630,91.9045,268.2078,0,U,58033,999,15464,.20066684E-4,.235E-5,0
STARLINK-30565,2023-156G,2026-07-16T04:00:01.998720,15.34408753,.0001439,53.1592,201.5025,91.3953,337.1342,0,U,58034,999,574,-.88779E-3,-.30261E-3,0
STARLINK-30438,2023-156H,2026-07-15T09:44:31.059456,15.30192792,.00009729,53.1591,204.8785,81.9136,278.1975,0,U,58035,999,15582,.42961594E-4,.913E-5,0
STARLINK-30437,2023-156J,2026-07-16T00:03:09.345600,15.30187362,.0001115,53.1587,202.1955,81.7803,278.3324,0,U,58036,999,15591,.1831E-5,-.305E-5,0
STARLINK-30533,2023-156K,2026-07-15T16:59:29.884992,15.34403410,.00011138,53.1590,292.0772,63.8372,296.2745,0,U,58037,999,15465,.47763553E-3,.15797E-3,0
STARLINK-30560,2023-156L,2026-07-16T00:26:32.975808,15.30202071,.0001328,53.1607,199.4541,98.6757,261.4394,0,U,58038,999,15595,.40953E-5,-.238E-5,0
STARLINK-30555,2023-156N,2026-07-15T13:00:23.507136,15.34400625,.00014833,53.1606,292.4811,106.6936,253.4230,0,U,58040,999,15463,-.66465159E-4,-.2621E-4,0
STARLINK-30542,2023-156P,2026-07-16T04:00:01.998720,15.33551489,.0001279,53.1591,201.4299,80.5900,195.6598,0,U,58041,999,585,-.60777E-3,-.20309E-3,0
STARLINK-30563,2023-156Q,2026-07-15T08:02:04.075296,15.30192300,.00010665,53.1593,202.8575,74.6517,285.4602,0,U,58042,999,15589,.24012789E-4,.352E-5,0
STARLINK-30564,2023-156R,2026-07-16T01:03:54.217728,15.30156395,.0001725,53.1564,202.2938,134.8715,225.2426,0,U,58043,999,15596,-.21068E-2,-.62157E-3,0
STARLINK-30547,2023-156S,2026-07-15T18:06:00.408960,15.34398205,.00009428,53.1601,291.6265,95.7529,264.3582,0,U,58044,999,15466,.18572633E-4,.251E-5,0
STARLINK-30550,2023-156T,2026-07-16T04:19:58.057248,15.34400466,.0001431,53.1605,123.4315,77.6389,282.4774,0,U,58045,999,15706,-.29913E-5,-.477E-5,0
STARLINK-30548,2023-156U,2026-07-15T12:51:19.026432,15.34382735,.00010408,53.1594,292.4428,64.0143,296.0967,0,U,58046,999,15458,-.41803024E-4,-.1787E-4,0
STARLINK-30529,2023-156V,2026-07-16T04:00:01.998720,15.35372401,.0002016,53.1602,291.5696,89.3073,173.2860,0,U,58047,999,585,.16363E-2,.5708E-3,0
STARLINK-30554,2023-156W,2026-07-15T15:11:47.524416,15.30196635,.00008643,53.1589,293.7553,82.3831,277.7268,0,U,58048,999,15457,.64841061E-4,.1562E-4,0
STARLINK-30568,2023-158A,2026-07-15T21:39:07.314336,15.27572748,.0002079,43.0049,23.3782,236.6053,123.4600,0,U,58051,999,15316,.4463E-4,.966E-5,0
STARLINK-30575,2023-158B,2026-07-15T21:33:34.779744,15.27574210,.0000908,43.0023,23.3529,243.1468,116.9291,0,U,58052,999,15317,.18056E-5,-.212E-5,0
STARLINK-30577,2023-158C,2026-07-15T22:21:28.856736,15.27572228,.0000941,43.0015,22.7295,283.3843,76.6904,0,U,58053,999,15318,-.30847E-5,-.347E-5,0
STARLINK-30566,2023-158D,2026-07-15T22:10:22.856160,15.27687261,.0001752,42.9957,22.6947,319.6512,40.4210,0,U,58054,999,15318,.32648E-2,.90991E-3,0
