NESS                    
1 58020U 23155E   26197.16351238  .00008786  00000+0  29531-3 0  9996
2 58020  97.5914 283.6062 0007177 101.8981 258.3065 15.31048752152923
CSC-2                   
1 58021U 23155F   26197.19240905  .00004655  00000+0  20514-3 0  9991
2 58021  97.5420 273.9418 0006319 128.8254 231.3547 15.22294732152592
CSC-1                   
1 58022U 23155G   26197.12360903  .00001942  00000+0  12013-3 0  9997
2 58022  97.5356 266.1651 0009242 135.1777 225.0201 15.10967787152101
PRETTY                  
1 58023U 23155H   26196.28596415  .00003166  00000+0  13304-3 0  9997
2 58023  97.5690 278.1471 0000295  39.3650 320.7608 15.24186818152635
MACSAT (FINCH 1)        
1 58024U 23155J   26197.17008517  .00002165  00000+0  10146-3 0  9997
2 58024  97.5777 279.3176 0001703  10.3709 349.7560 15.20795354152732
PVCC                    
1 58025U 23155K   26197.17529495  .00003058  00000+0  16148-3 0  9991
2 58025  97.5696 273.6420 0004969  50.6961 309.4711 15.16277380152376
STARLINK-30514          
1 58028U 23156A   26196.73776842 -.00001859  00000+0 -50666-4 0  9999
2 58028  53.1602 203.3950 0001845  81.2422 278.8788 15.30179274155920
STARLINK-30518          
1 58029U 23156B   26197.00852610  .00000364  00000+0  24434-4 0  9991
2 58029  53.1587 202.2502 0001277  89.3841 270.7306 15.30186772155969
STARLINK-30549          
1 58030U 23156C   26196.31641269 -.00001553  00000+0 -40308-4 0  9993
2 58030  53.1597 205.5663 0001175  92.0125 268.1010 15.30204770155804
STARLINK-30556          
1 58031U 23156D   26197.05087218  .00000668  00000+0  30889-4 0  9991
2 58031  53.1588 210.0239 0001219  90.2557 269.8585 15.34403868155845
STARLINK-30561          
1 58032U 23156E   26197.16668980 -.00027272  00000+0 -79875-3 0  9994
2 58032  53.1594 201.5647 0001397  72.3935 321.2704 15.34406727  5846
STARLINK-30562          
1 58033U 23156F   26196.75115294  .00000235  00000+0  20067-4 0  9992
2 58033  53.1599 293.0630 0001066  91.9045 268.2078 15.30200244154641
STARLINK-30565          
1 58034U 23156G   26197.16668980 -.00030261  00000+0 -88779-3 0  9991
2 58034  53.1592 201.5025 0001439  91.3953 337.1342 15.34408753  5748
STARLINK-30438          
1 58035U 23156H   26196.40591504  .00000913  00000+0  42962-4 0  9999
2 58035  53.1591 204.8785 0000972  81.9136 278.1975 15.30192792155826
STARLINK-30437          
1 58036U 23156J   26197.00219150 -.00000305  00000+0  18310-5 0  9998
2 58036  53.1587 202.1955 0001115  81.7803 278.3324 15.30187362155918
STARLINK-30533          
1 58037U 23156K   26196.70798478  .00015797  00000+0  47764-3 0  9993
2 58037  53.1590 292.0772 0001113  63.8372 296.2745 15.34403410154653
STARLINK-30560          
1 58038U 23156L   26197.01843722 -.00000238  00000+0  40953-5 0  9992
2 58038  53.1607 199.4541 0001328  98.6757 261.4394 15.30202071155952
STARLINK-30555          
1 58040U 23156N   26196.54193874 -.00002621  00000+0 -66465-4 0  9992
2 58040  53.1606 292.4811 0001483 106.6936 253.4230 15.34400625154632
STARLINK-30542          
1 58041U 23156P   26197.16668980 -.00020309  00000+0 -60777-3 0  9999
2 58041  53.1591 201.4299 0001279  80.5900 195.6598 15.33551489  5857
STARLINK-30563          
1 58042U 23156Q   26196.33476939  .00000352  00000+0  24013-4 0  9997
2 58042  53.1593 202.8575 0001066  74.6517 285.4602 15.30192300155898
STARLINK-30564          
1 58043U 23156R   26197.04437752 -.00062157  00000+0 -21068-2 0  9995
2 58043  53.1564 202.2938 0001725 134.8715 225.2426 15.30156395155963
STARLINK-30547          
1 58044U 23156S   26196.75417140  .00000251  00000+0  18573-4 0  9996
2 58044  53.1601 291.6265 0000942  95.7529 264.3582 15.34398205154664
STARLINK-30550          
1 58045U 23156T   26197.18053307 -.00000477  00000+0 -29913-5 0  9999
2 58045  53.1605 123.4315 0001431  77.6389 282.4774 15.34400466157068
STARLINK-30548          
1 58046U 23156U   26196.53563688 -.00001787  00000+0 -41803-4 0  9992
2 58046  53.1594 292.4428 0001040  64.0143 296.0967 15.34382735154589
STARLINK-30529          
1 58047U 23156V   26197.16668980  .00057080  00000+0  16363-2 0  9990
2 58047  53.1602 291.5696 0002016  89.3073 173.2860 15.35372401  5856
STARLINK-30554          
1 58048U 23156W   26196.63318894  .00001562  00000+0  64841-4 0  9998
2 58048  53.1589 293.7553 0000864  82.3831 277.7268 15.30196635154575
STARLINK-30568          
1 58051U 23158A   26196.90216799  .00000966  00000+0  44630-4 0  9996
2 58051  43.0049  23.3782 0002079 236.6053 123.4600 15.27572748153169
STARLINK-30575          
1 58052U 23158B   26196.89831921 -.00000212  00000+0  18056-5 0  9994
2 58052  43.0023  23.3529 0000908 243.1468 116.9291 15.27574210153173
STARLINK-30577          
1 58053U 23158C   26196.93158399 -.00000347  00000+0 -30847-5 0  9993
2 58053  43.0015  22.7295 0000941 283.3843  76.6904 15.27572228153189
STARLINK-30566          
1 58054U 23158D   26196.92387565  .00090991  00000+0  32648-2 0  9992
2 58054  42.9957  22.6947 0001752 319.6512  40.4210 15.27687261153186
